[{"OBJECT_NAME":"IRIDIUM 138","OBJECT_ID":"2017-083B","EPOCH":"2026-03-09T21:30:43.184160","MEAN_MOTION":14.34218949,"ECCENTRICITY":0.00023523,"INCLINATION":86.4035,"RA_OF_ASC_NODE":3.1874,"ARG_OF_PERICENTER":77.6293,"MEAN_ANOMALY":282.5166,"EPHEMERIS_TYPE":0,"CLASSIFICATION_TYPE":"U","NORAD_CAT_ID":43071,"ELEMENT_SET_NO":999,"REV_AT_EPOCH":42990,"BSTAR":0.00011242147,"MEAN_MOTION_DOT":3.35e-6,"MEAN_MOTION_DDOT":0},{"OBJECT_NAME":"THORAD AGENA D DEB","OBJECT_ID":"1970-025TM","EPOCH":"2026-03-09T22:12:20.994336","MEAN_MOTION":14.20019293,"ECCENTRICITY":0.00723749,"INCLINATION":99.9961,"RA_OF_ASC_NODE":50.813,"ARG_OF_PERICENTER":73.6935,"MEAN_ANOMALY":342.4405,"EPHEMERIS_TYPE":0,"CLASSIFICATION_TYPE":"U","NORAD_CAT_ID":44564,"ELEMENT_SET_NO":999,"REV_AT_EPOCH":63119,"BSTAR":0.0023410761,"MEAN_MOTION_DOT":5.063e-5,"MEAN_MOTION_DDOT":0}]
